{
    "links": {
        "self": "http://www.neowsapp.com/rest/v1/neo/3802422?api_key=iIulBulltgU6a56xZRHN4H3l9WmuAYTsLGpBGhQ2"
    },
    "id": "3802422",
    "neo_reference_id": "3802422",
    "name": "(2018 GH1)",
    "designation": "2018 GH1",
    "nasa_jpl_url": "http://ssd.jpl.nasa.gov/sbdb.cgi?sstr=3802422",
    "absolute_magnitude_h": 21.6,
    "estimated_diameter": {
        "kilometers": {
            "estimated_diameter_min": 0.1272198785,
            "estimated_diameter_max": 0.2844722965
        },
        "meters": {
            "estimated_diameter_min": 127.2198785394,
            "estimated_diameter_max": 284.4722965033
        },
        "miles": {
            "estimated_diameter_min": 0.0790507431,
            "estimated_diameter_max": 0.1767628354
        },
        "feet": {
            "estimated_diameter_min": 417.3880663071,
            "estimated_diameter_max": 933.3080892598
        }
    },
    "is_potentially_hazardous_asteroid": false,
    "close_approach_data": [
        {
            "close_approach_date": "2018-02-17",
            "close_approach_date_full": "2018-Feb-17 20:52",
            "epoch_date_close_approach": 1518900720000,
            "relative_velocity": {
                "kilometers_per_second": "15.1276277296",
                "kilometers_per_hour": "54459.4598266694",
                "miles_per_hour": "33838.9904684102"
            },
            "miss_distance": {
                "astronomical": "0.1742761083",
                "lunar": "67.7934061287",
                "kilometers": "26071334.593569321",
                "miles": "16199976.1135697898"
            },
            "orbiting_body": "Earth"
        }
    ],
    "orbital_data": {
        "orbit_id": "4",
        "orbit_determination_date": "2018-05-09 06:34:37",
        "first_observation_date": "2018-04-08",
        "last_observation_date": "2018-05-08",
        "data_arc_in_days": 30,
        "observations_used": 27,
        "orbit_uncertainty": "7",
        "minimum_orbit_intersection": ".171524",
        "jupiter_tisserand_invariant": "3.341",
        "epoch_osculation": "2459000.5",
        "eccentricity": ".6347461186976654",
        "semi_major_axis": "2.201997139628683",
        "inclination": "13.43632023117135",
        "ascending_node_longitude": "104.2088119858923",
        "orbital_period": "1193.503103377806",
        "perihelion_distance": ".8042880018660155",
        "perihelion_argument": ".3576912923067219",
        "aphelion_distance": "3.599706277391351",
        "perihelion_time": "2459336.276509505297",
        "mean_anomaly": "258.7187020462716",
        "mean_motion": ".301633065704766",
        "equinox": "J2000",
        "orbit_class": {
            "orbit_class_type": "APO",
            "orbit_class_description": "Near-Earth asteroid orbits which cross the Earth’s orbit similar to that of 1862 Apollo",
            "orbit_class_range": "a (semi-major axis) > 1.0 AU; q (perihelion) < 1.017 AU"
        }
    },
    "is_sentry_object": false
}